{
  "type": "FeatureCollection",
  "features": [
    {
      "type": "Feature",
      "properties": {
        "norad_id": 42989,
        "name": "SKYSAT-C9",
        "group": "resource",
        "lat": -81.7490977018965,
        "lon": -165.49685390226543,
        "alt_km": 468.73309523612534,
        "timestamp": "2025-12-26T03:50:11.745304+00:00",
        "meta_object_name": "SKYSAT-C9",
        "meta_object_id": "2017-068C",
        "meta_epoch": "2025-12-25T07:53:29.378400",
        "meta_mean_motion": 15.36363881,
        "meta_eccentricity": 0.0010242,
        "meta_inclination": 97.4193,
        "meta_ra_of_asc_node": 129.6845,
        "meta_arg_of_pericenter": 47.2855,
        "meta_mean_anomaly": 312.925,
        "meta_ephemeris_type": 0,
        "meta_classification_type": "U",
        "meta_norad_cat_id": 42989,
        "meta_element_set_no": 999,
        "meta_rev_at_epoch": 45601,
        "meta_bstar": 0.00039021,
        "meta_mean_motion_dot": 0.00013787,
        "meta_mean_motion_ddot": 0,
        "tle_line1": "1 42989U 17068C   25359.32881225  .00013787  00000+0  39021-3 0  9992",
        "tle_line2": "2 42989  97.4193 129.6845 0010242  47.2855 312.9250 15.36363881456014"
      },
      "geometry": {
        "type": "Point",
        "coordinates": [
          -165.49685390226543,
          -81.7490977018965
        ]
      }
    },
    {
      "type": "Feature",
      "properties": {
        "norad_id": 42990,
        "name": "SKYSAT-C8",
        "group": "resource",
        "lat": 82.1455718269772,
        "lon": 21.276823096543485,
        "alt_km": 459.40347205487797,
        "timestamp": "2025-12-26T03:50:11.745314+00:00",
        "meta_object_name": "SKYSAT-C8",
        "meta_object_id": "2017-068D",
        "meta_epoch": "2025-12-25T19:36:09.673632",
        "meta_mean_motion": 15.33207938,
        "meta_eccentricity": 9.37e-05,
        "meta_inclination": 97.4287,
        "meta_ra_of_asc_node": 129.8764,
        "meta_arg_of_pericenter": 264.9674,
        "meta_mean_anomaly": 95.1461,
        "meta_ephemeris_type": 0,
        "meta_classification_type": "U",
        "meta_norad_cat_id": 42990,
        "meta_element_set_no": 999,
        "meta_rev_at_epoch": 45571,
        "meta_bstar": 0.00037389,
        "meta_mean_motion_dot": 0.00011923,
        "meta_mean_motion_ddot": 0,
        "tle_line1": "1 42990U 17068D   25359.81677863  .00011923  00000+0  37389-3 0  9994",
        "tle_line2": "2 42990  97.4287 129.8764 0000937 264.9674  95.1461 15.33207938455716"
      },
      "geometry": {
        "type": "Point",
        "coordinates": [
          21.276823096543485,
          82.1455718269772
        ]
      }
    },
    {
      "type": "Feature",
      "properties": {
        "norad_id": 42991,
        "name": "SKYSAT-C7",
        "group": "resource",
        "lat": -78.40904409523793,
        "lon": 170.76201634564268,
        "alt_km": 475.8035720245707,
        "timestamp": "2025-12-26T03:50:11.745335+00:00",
        "meta_object_name": "SKYSAT-C7",
        "meta_object_id": "2017-068E",
        "meta_epoch": "2025-12-25T15:39:14.167584",
        "meta_mean_motion": 15.32597834,
        "meta_eccentricity": 0.0006817,
        "meta_inclination": 97.4295,
        "meta_ra_of_asc_node": 130.7418,
        "meta_arg_of_pericenter": 15.9528,
        "meta_mean_anomaly": 344.1927,
        "meta_ephemeris_type": 0,
        "meta_classification_type": "U",
        "meta_norad_cat_id": 42991,
        "meta_element_set_no": 999,
        "meta_rev_at_epoch": 45575,
        "meta_bstar": 0.00039345,
        "meta_mean_motion_dot": 0.00012321,
        "meta_mean_motion_ddot": 0,
        "tle_line1": "1 42991U 17068E   25359.65224731  .00012321  00000+0  39345-3 0  9996",
        "tle_line2": "2 42991  97.4295 130.7418 0006817  15.9528 344.1927 15.32597834455752"
      },
      "geometry": {
        "type": "Point",
        "coordinates": [
          170.76201634564268,
          -78.40904409523793
        ]
      }
    },
    {
      "type": "Feature",
      "properties": {
        "norad_id": 42992,
        "name": "SKYSAT-C6",
        "group": "resource",
        "lat": -4.770641030581232,
        "lon": 132.30318213429263,
        "alt_km": 472.1811030495928,
        "timestamp": "2025-12-26T03:50:11.745347+00:00",
        "meta_object_name": "SKYSAT-C6",
        "meta_object_id": "2017-068F",
        "meta_epoch": "2025-12-25T20:01:06.089664",
        "meta_mean_motion": 15.31757076,
        "meta_eccentricity": 0.0004738,
        "meta_inclination": 97.4326,
        "meta_ra_of_asc_node": 131.3522,
        "meta_arg_of_pericenter": 46.8398,
        "meta_mean_anomaly": 313.3239,
        "meta_ephemeris_type": 0,
        "meta_classification_type": "U",
        "meta_norad_cat_id": 42992,
        "meta_element_set_no": 999,
        "meta_rev_at_epoch": 45576,
        "meta_bstar": 0.00037472,
        "meta_mean_motion_dot": 0.0001142,
        "meta_mean_motion_ddot": 0,
        "tle_line1": "1 42992U 17068F   25359.83409826  .00011420  00000+0  37472-3 0  9995",
        "tle_line2": "2 42992  97.4326 131.3522 0004738  46.8398 313.3239 15.31757076455769"
      },
      "geometry": {
        "type": "Point",
        "coordinates": [
          132.30318213429263,
          -4.770641030581232
        ]
      }
    },
    {
      "type": "Feature",
      "properties": {
        "norad_id": 43111,
        "name": "CARTOSAT-2F",
        "group": "resource",
        "lat": -44.60689499241815,
        "lon": -129.8164646824436,
        "alt_km": 515.3524676858624,
        "timestamp": "2025-12-26T03:50:11.745357+00:00",
        "meta_object_name": "CARTOSAT-2F",
        "meta_object_id": "2018-004A",
        "meta_epoch": "2025-12-25T20:31:35.010048",
        "meta_mean_motion": 15.19246067,
        "meta_eccentricity": 0.0001555,
        "meta_inclination": 97.4294,
        "meta_ra_of_asc_node": 57.2791,
        "meta_arg_of_pericenter": 109.9291,
        "meta_mean_anomaly": 250.2111,
        "meta_ephemeris_type": 0,
        "meta_classification_type": "U",
        "meta_norad_cat_id": 43111,
        "meta_element_set_no": 999,
        "meta_rev_at_epoch": 44101,
        "meta_bstar": 0.00017657,
        "meta_mean_motion_dot": 3.653e-05,
        "meta_mean_motion_ddot": 0,
        "tle_line1": "1 43111U 18004A   25359.85526632  .00003653  00000+0  17657-3 0  9999",
        "tle_line2": "2 43111  97.4294  57.2791 0001555 109.9291 250.2111 15.19246067441018"
      },
      "geometry": {
        "type": "Point",
        "coordinates": [
          -129.8164646824436,
          -44.60689499241815
        ]
      }
    },
    {
      "type": "Feature",
      "properties": {
        "norad_id": 43259,
        "name": "GAOFEN-1 02",
        "group": "resource",
        "lat": 81.08092946699226,
        "lon": -6.873995645502404,
        "alt_km": 632.8812400328452,
        "timestamp": "2025-12-26T03:50:11.745367+00:00",
        "meta_object_name": "GAOFEN-1 02",
        "meta_object_id": "2018-031A",
        "meta_epoch": "2025-12-25T20:56:29.081184",
        "meta_mean_motion": 14.76442656,
        "meta_eccentricity": 0.0002662,
        "meta_inclination": 98.0784,
        "meta_ra_of_asc_node": 57.6653,
        "meta_arg_of_pericenter": 169.3329,
        "meta_mean_anomaly": 190.7937,
        "meta_ephemeris_type": 0,
        "meta_classification_type": "U",
        "meta_norad_cat_id": 43259,
        "meta_element_set_no": 999,
        "meta_rev_at_epoch": 41712,
        "meta_bstar": 0.00019933,
        "meta_mean_motion_dot": 1.335e-05,
        "meta_mean_motion_ddot": 0,
        "tle_line1": "1 43259U 18031A   25359.87255881  .00001335  00000+0  19933-3 0  9993",
        "tle_line2": "2 43259  98.0784  57.6653 0002662 169.3329 190.7937 14.76442656417128"
      },
      "geometry": {
        "type": "Point",
        "coordinates": [
          -6.873995645502404,
          81.08092946699226
        ]
      }
    },
    {
      "type": "Feature",
      "properties": {
        "norad_id": 43260,
        "name": "GAOFEN-1 03",
        "group": "resource",
        "lat": -22.33319528785766,
        "lon": -125.51611435775574,
        "alt_km": 645.0903668085975,
        "timestamp": "2025-12-26T03:50:11.745378+00:00",
        "meta_object_name": "GAOFEN-1 03",
        "meta_object_id": "2018-031B",
        "meta_epoch": "2025-12-25T20:24:58.840128",
        "meta_mean_motion": 14.76462971,
        "meta_eccentricity": 0.0001751,
        "meta_inclination": 98.078,
        "meta_ra_of_asc_node": 57.5195,
        "meta_arg_of_pericenter": 251.5378,
        "meta_mean_anomaly": 108.5641,
        "meta_ephemeris_type": 0,
        "meta_classification_type": "U",
        "meta_norad_cat_id": 43260,
        "meta_element_set_no": 999,
        "meta_rev_at_epoch": 41711,
        "meta_bstar": 0.00014568,
        "meta_mean_motion_dot": 9.62e-06,
        "meta_mean_motion_ddot": 0,
        "tle_line1": "1 43260U 18031B   25359.85068102  .00000962  00000+0  14568-3 0  9995",
        "tle_line2": "2 43260  98.0780  57.5195 0001751 251.5378 108.5641 14.76462971417112"
      },
      "geometry": {
        "type": "Point",
        "coordinates": [
          -125.51611435775574,
          -22.33319528785766
        ]
      }
    }
  ]
}